ION SCV-004             
1 50993U 22002K   26068.68892644  .00006538  00000+0  23198-3 0  9998
2 50993  97.2961 128.2294 0007216   1.6783 358.4480 15.29369331230088
STARLINK-34609          
1 64768U 25147P   26068.76556498  .00038808  00000+0  13162-2 0  9993
2 64768  53.1589 232.4432 0001165  75.4751 284.6379 15.30183918 38904
